              TDR Cartesian                         TDR Cartesian  
    -----------------------------------       --------------------------------
     X    =       10942089.94                 X    =         3335149.01
     Y    =       18583619.10  feet           Y    =         5664287.10  meter
     Z    =        5460992.85                 Z    =         1664510.62
     XDOT =     -10100.917999                 XDOT =       -3078.759806
     YDOT =      11488.900883  feet/sec       YDOT =        3501.816989  meter/sec
     ZDOT =     -18739.350378                 ZDOT =       -5711.753995
  
  
    The mean element set is posted at the UTC for which position is
    just north of the next ascending node relative to the above
    vector time
 
 
    TWO LINE MEAN ELEMENT SET
  
    ISS
    1 25544U 98067A   16122.53544742  .00016717  00000-0  10270-3 0  9047
    2 25544  51.6393 290.7504 0001563  72.6224 287.5099 15.54409205 37728
  
  
    Satellite: ISS
    Catalog Number: 25544
    Epoch time:      16122.53544742   =   yrday.fracday
    Element set:     904
    Inclination:       51.6393  deg
    RA of node:       290.7504  deg
    Eccentricity:     .0001563     
    Arg of perigee:    72.6224  deg
    Mean anomaly:     287.5099  deg
    Mean motion:   15.54409205  rev/day
    Decay rate:    1.67170E-04  rev/day^2
    Epoch rev:            3772
    Checksum:              309
 
 
    Coasting Arc #6 (Orbit 3787)
    ---------------------------------------
 
    Vector Time (GMT): 2016/123/12:00:00.000
    Vector Time (MET): N/A
    Weight (LBS)     : 945238.6
 
              M50 Cartesian                         M50 Keplerian  
    -----------------------------------       --------------------------------
     X    =        1839103.82                 A    =         6788536.77  meter
     Y    =       -6527916.98  meter          E    =           .0013741
     Z    =          83082.17                 I    =           51.30532
     XDOT =       4593.328346                 Wp   =           50.98851
     YDOT =       1378.639100  meter/sec      RA   =          285.17185  deg
     ZDOT =       5985.078867                 TA   =          309.91076
                                              MA   =          310.03146
                                              Ha   =            221.219  n.mi
                                              Hp   =            213.568
 
              M50 Cartesian                         J2K Cartesian  
    -----------------------------------       --------------------------------
     X    =        6033805.20                 X    =         1911560.35
     Y    =      -21417050.45  feet           Y    =        -6506945.76  meter
     Z    =         272579.29                 Z    =           92192.43
     XDOT =      15069.974887                 XDOT =        4548.497438
     YDOT =       4523.094161  feet/sec       YDOT =        1429.754339  meter/sec
     ZDOT =      19636.085522                 ZDOT =        6007.283387
 
              TDR Cartesian                         TDR Cartesian  
    -----------------------------------       --------------------------------
     X    =       -9139791.55                 X    =        -2785808.47
     Y    =      -20286378.94  feet           Y    =        -6183288.30  meter
     Z    =         313359.92                 Z    =           95512.10
     XDOT =      12878.311218                 XDOT =        3925.309259
     YDOT =      -5468.306220  feet/sec       YDOT =       -1666.739736  meter/sec
     ZDOT =      19732.246465                 ZDOT =        6014.388723
  
  
    The mean element set is posted at the UTC for which position is
    just north of the next ascending node relative to the above
    vector time
 
 
    TWO LINE MEAN ELEMENT SET
  
    ISS
    1 25544U 98067A   16123.56410996  .00016717  00000-0  10270-3 0  9055
    2 25544  51.6399 285.6202 0001795  85.3294 274.8063 15.54400461 37889
  
  
    Satellite: ISS
    Catalog Number: 25544
    Epoch time:      16123.56410996   =   yrday.fracday
    Element set:     905
    Inclination:       51.6399  deg
    RA of node:       285.6202  deg
    Eccentricity:     .0001795     
    Arg of perigee:    85.3294  deg
    Mean anomaly:     274.8063  deg
    Mean motion:   15.54400461  rev/day
    Decay rate:    1.67170E-04  rev/day^2
    Epoch rev:            3788
    Checksum:              328
 
 
    Coasting Arc #7 (Orbit 3802)
    ---------------------------------------
 
    Vector Time (GMT): 2016/124/12:00:00.000
    Vector Time (MET): N/A
    Weight (LBS)     : 945238.6
 
              M50 Cartesian                         M50 Keplerian  
    -----------------------------------       --------------------------------
     X    =       -2597681.95                 A    =         6786960.65  meter
     Y    =        5982190.04  meter          E    =           .0008216
     Z    =       -1871666.62                 I    =           51.29205
     XDOT =      -3937.207016                 Wp   =          130.06635
     YDOT =      -3454.176790  meter/sec      RA   =          280.17616  deg
     ZDOT =      -5597.276351                 TA   =           70.63501
                                              MA   =           70.54621
                                              Ha   =            221.179  n.mi
                                              Hp   =            213.515
 
              M50 Cartesian                         J2K Cartesian  
    -----------------------------------       --------------------------------
     X    =       -8522578.56                 X    =        -2655291.35
     Y    =       19626607.73  feet           Y    =         5952818.83  meter
     Z    =       -6140638.52                 Z    =        -1884425.89
     XDOT =     -12917.345853                 XDOT =       -3871.099392
     YDOT =     -11332.601017  feet/sec       YDOT =       -3497.835888  meter/sec
     ZDOT =     -18363.767557                 ZDOT =       -5616.241852
 
              TDR Cartesian                         TDR Cartesian  
    -----------------------------------       --------------------------------
     X    =        6462500.87                 X    =         1969770.27
     Y    =       20380797.75  feet           Y    =         6212067.15  meter
     Z    =       -6197151.24                 Z    =        -1888891.70
     XDOT =     -15609.132181                 XDOT =       -4757.663489
     YDOT =       -637.932116  feet/sec       YDOT =        -194.441709  meter/sec
     ZDOT =     -18445.480851                 ZDOT =       -5622.182563
  
  
    The mean element set is posted at the UTC for which position is
    just north of the next ascending node relative to the above
    vector time
 
 
    TWO LINE MEAN ELEMENT SET
  
    ISS
    1 25544U 98067A   16124.52847484  .00016717  00000-0  10270-3 0  9069
    2 25544  51.6391 280.8110 0001821  83.8065 276.3295 15.54421329 38033
  
  
    Satellite: ISS
    Catalog Number: 25544
    Epoch time:      16124.52847484   =   yrday.fracday
    Element set:     906
    Inclination:       51.6391  deg
    RA of node:       280.8110  deg
    Eccentricity:     .0001821     
    Arg of perigee:    83.8065  deg
    Mean anomaly:     276.3295  deg
    Mean motion:   15.54421329  rev/day
    Decay rate:    1.67170E-04  rev/day^2
    Epoch rev:            3803
    Checksum:              306
 
 
    Coasting Arc #8 (Orbit 3818)
    ---------------------------------------
 
    Vector Time (GMT): 2016/125/12:00:00.000
    Vector Time (MET): N/A
    Weight (LBS)     : 945238.6
 
              M50 Cartesian                         M50 Keplerian  
    -----------------------------------       --------------------------------
     X    =        3187292.42                 A    =         6783474.38  meter
     Y    =       -4916523.65  meter          E    =           .0014064
     Z    =        3406176.41                 I    =           51.27674
     XDOT =       3206.647833                 Wp   =           90.57522
     YDOT =       5259.286082  meter/sec      RA   =          275.17176  deg
     ZDOT =       4574.198282                 TA   =          309.52948
                                              MA   =          309.65370
                                              Ha   =            221.077  n.mi
                                              Hp   =            213.559
 
              M50 Cartesian                         J2K Cartesian  
    -----------------------------------       --------------------------------
     X    =       10456996.12                 X    =         3225487.29
     Y    =      -16130326.93  feet           Y    =        -4880667.52  meter
     Z    =       11175119.45                 Z    =         3421752.73
     XDOT =      10520.498141                 XDOT =        3125.378973
     YDOT =      17254.875596  feet/sec       YDOT =        5294.690739  meter/sec
     ZDOT =      15007.212212                 ZDOT =        4589.578041
 
              TDR Cartesian                         TDR Cartesian  
    -----------------------------------       --------------------------------
     X    =       -3059963.72                 X    =         -932676.94
     Y    =      -18937693.76  feet           Y    =        -5772209.06  meter
     Z    =       11243659.82                 Z    =         3427067.51
     XDOT =      17907.351548                 XDOT =        5458.160752
     YDOT =       6087.686478  feet/sec       YDOT =        1855.526839  meter/sec
     ZDOT =      15073.028161                 ZDOT =        4594.258983
  
  
    The mean element set is posted at the UTC for which position is
    just north of the next ascending node relative to the above
    vector time
 
 
    TWO LINE MEAN ELEMENT SET
  
    ISS
    1 25544U 98067A   16125.55712466  .00016717  00000-0  10270-3 0  9075
    2 25544  51.6401 275.6807 0001682  93.0717 267.0628 15.54428363 38191
  
